TEVEL2-6                
1 63215U 25052F   26068.64958975  .00021046  00000+0  70909-3 0  9996
2 63215  97.4016 325.0381 0004769  95.6604 264.5181 15.30760889 54861
STARLINK-33768          
1 63454U 25069X   26068.48132380  .00037166  00000+0  12609-2 0  9997
2 63454  53.1580 143.3729 0001089  46.5569 313.5523 15.30194017 53379
